0 THORAD AGENA D DEB
1 06160U 70025MZ  13282.47035854  .00011995  00000-0  64297-2 0  3538
2 06160 100.4603 204.7226 0087052 315.6319 098.9251 14.11270966158322
0 THORAD AGENA D DEB
1 06160U 70025MZ  13283.46258691  .00011277  00000-0  60471-2 0  3548
2 06160 100.4601 205.8775 0086720 313.1431 099.8680 14.11286293158461
0 THORAD AGENA D DEB
1 06160U 70025MZ  13283.73561425  .00013046  00000-0  69719-2 0  3551
2 06160 100.4606 206.1941 0087155 312.3151 047.1127 14.11286732158503
0 THORAD AGENA D DEB
1 06160U 70025MZ  13285.73357726  .00008920  00000-0  47919-2 0  3564
2 06160 100.4603 208.5204 0085850 307.4742 117.6633 14.11321984158783
0 THORAD AGENA D DEB
1 06160U 70025MZ  13287.00838315  .00008516  00000-0  45754-2 0  3571
2 06160 100.4607 210.0041 0085548 304.1668 114.5923 14.11344075158963
0 THORAD AGENA D DEB
1 06160U 70025MZ  13288.30305699  .00012584  00000-0  67411-2 0  3584
2 06160 100.4612 211.5108 0085126 300.8276 212.5522 14.11373265159147
0 THORAD AGENA D DEB
1 06160U 70025MZ  13290.28804560  .00012173  00000-0  65212-2 0  3597
2 06160 100.4613 213.8213 0084390 295.6827 218.1560 14.11414478159422
0 THORAD AGENA D DEB
1 06160U 70025MZ  13291.47329267  .00011222  00000-0  60145-2 0  3601
2 06160 100.4614 215.2009 0083969 292.5901 120.4814 14.11437418159596
0 THORAD AGENA D DEB
1 06160U 70025MZ  13292.74976013  .00011047  00000-0  59199-2 0  3612
2 06160 100.4607 216.6866 0083589 289.2048 126.4703 14.11464178159773
0 THORAD AGENA D DEB
1 06160U 70025MZ  13294.25855493  .00012515  00000-0  67002-2 0  3622
2 06160 100.4605 218.4429 0083056 285.2315 233.0880 14.11493847159987
0 THORAD AGENA D DEB
1 06160U 70025MZ  13295.31552221  .00013123  00000-0  70223-2 0  3639
2 06160 100.4609 219.6741 0082728 282.4003 203.9870 14.11516751160133
